ONEWEB-0267             
1 48985U 21060U   21250.58335648  .00000016  00000-0  00000-0 0  9992
2 48985  87.6929 216.1735 0007260  52.6643 236.7942 13.91171343 11315
ONEWEB-0268             
1 48986U 21060V   21250.58335648  .00000017  00000-0  00000-0 0  9994
2 48986  87.6941 216.1116 0009822  57.7426 144.9931 14.08635876 11362
ONEWEB-0269             
1 48987U 21060W   21250.58335648  .00000016  00000-0  00000-0 0  9994
2 48987  87.6962 216.1913 0008734  43.1829  32.6659 13.91871771  3524
ONEWEB-0270             
1 48988U 21060X   21250.58335648 -.00173603  00000-0 -12496+0 0  9991
2 48988  87.7380 216.0800 0011969  19.6172  89.3388 13.98117249  3480
ONEWEB-0271             
1 48989U 21060Y   21250.58335648  .00000016  00000-0  00000-0 0  9996
2 48989  87.7935 216.2325 0010103  51.4970 276.1042 13.97446187 11386
ONEWEB-0272             
1 48990U 21060Z   21250.58335648  .00000016  00000-0  00000-0 0  9998
2 48990  87.6928 216.1814 0008286  42.8767 310.6569 13.90312491 11345
ONEWEB-0273             
1 48991U 21060AA  21250.58335648  .00000016  00000-0  00000-0 0  9999
2 48991  87.6802 216.1866 0013732  41.5950 302.2276 13.89000329  3453
ONEWEB-0274             
1 48992U 21060AB  21250.58335648  .00000016  00000-0  00000-0 0  9990
2 48992  87.6984 216.2002 0010660  53.0000 221.0172 13.92590988 11360
ONEWEB-0275             
1 48993U 21060AC  21250.58335648  .00000016  00000-0  00000-0 0  9991
2 48993  87.6571 216.1509 0009726  58.1991 333.1101 13.84231932 11303
ONEWEB-0276             
1 48994U 21060AD  21250.58335648  .00000016  00000-0  00000-0 0  9992
2 48994  87.6737 216.1469 0012441  37.3330 344.9845 13.86937465 11331
ONEWEB-0277             
1 48995U 21060AE  21250.58335648  .00000016  00000-0  00000-0 0  9993
2 48995  87.6681 216.1607 0012954  56.6962 348.6682 13.86497139  3451
ONEWEB-0278             
1 48996U 21060AF  21250.58335648 -.00044421  00000-0 -31485-1 0  9996
2 48996  87.7792 216.1590 0012614  22.3493  93.7846 13.98038342  3549
ONEWEB-0279             
1 48997U 21060AG  21250.58335648 -.01181405  00000-0 -92741+0 0  9992
2 48997  87.6791 216.1543 0013707  39.3511  90.0651 13.95200296  3527
ONEWEB-0280             
1 48998U 21060AH  21250.58335648  .00000016  00000-0  00000-0 0  9996
2 48998  87.6790 216.1449 0007733  54.6234 278.2741 13.85138573 11308
ONEWEB-0281             
1 48999U 21060AJ  21250.58335648  .00000016  00000-0  00000-0 0  9997
2 48999  87.6983 216.1997 0011359  49.6473 272.1639 13.94134964 11364
ONEWEB-0282             
1 49000U 21060AK  21250.58335648  .00000016  00000-0  00000-0 0  9991
2 49000  87.7010 216.1862 0012310  32.9724 299.5208 13.92113051 11360
ONEWEB-0283             
1 49001U 21060AL  21250.58335648  .00000016  00000-0  00000-0 0  9992
2 49001  87.7184 216.1891 0012259  30.7705 168.0382 13.95331107 11373
ONEWEB-0284             
1 49002U 21060AM  21250.58335648  .00000016  00000-0  00000-0 0  9993
2 49002  87.6943 216.1801 0009456  42.4045 104.1924 13.94381494 11342
ONEWEB-0285             
1 49075U 21075A   21250.58335648  .00013720  00000-0  37648-3 0  9996
2 49075  87.4025   0.4583 0016407 237.3919  98.6944 15.36998190  3548
ONEWEB-0286             
1 49076U 21075B   21250.58335648  .00011609  00000-0  30938-3 0  9996
2 49076  87.4027   0.4537 0018622 244.1345 139.7356 15.37850166  3545
ONEWEB-0287             
1 49077U 21075C   21250.58335648  .00013077  00000-0  38579-3 0  9997
2 49077  87.4033   0.4824 0017285 241.2794 317.2751 15.34719072  3552
ONEWEB-0288             
1 49078U 21075D   21250.58335648  .00012144  00000-0  32511-3 0  9992
2 49078  87.4030   0.4527 0018168 245.0941 131.2574 15.37723525  3566
ONEWEB-0289             
1 49079U 21075E   21250.58335648  .00013837  00000-0  39236-3 0  9994
2 49079  87.4001   0.4640 0020576 239.0789  29.4110 15.35896876  3551
ONEWEB-0290             
1 49080U 21075F   21250.58335648  .00013860  00000-0  39606-3 0  9993
2 49080  87.4013   0.4696 0020625 242.0975  12.0545 15.35655399  3602
ONEWEB-0291             
1 49081U 21075G   21250.58335648  .00013840  00000-0  38248-3 0  9993
2 49081  87.4019   0.4577 0017424 235.4811  86.4743 15.36761881  3560
ONEWEB-0293             
1 49082U 21075H   21250.58335648  .00013811  00000-0  38999-3 0  9995
2 49082  87.4027   0.4704 0020470 235.9959  40.2055 15.36030324  3537
ONEWEB-0294             
1 49083U 21075J   21250.58335648  .00008711  00000-0  22662-3 0  9999
2 49083  87.4050   0.4515 0019951 236.3388 187.9161 15.38533501  3542
ONEWEB-0295             
1 49084U 21075K   21250.58335648  .00013463  00000-0  39481-3 0  9997
2 49084  87.4046   0.4834 0017710 244.5932 327.2442 15.34900308  3617
ONEWEB-0296             
1 49085U 21075L   21250.58335648  .00010535  00000-0  27839-3 0  9999
2 49085  87.4029   0.4505 0019517 242.5438 155.3378 15.38085107  3567
ONEWEB-0297             
1 49086U 21075M   21250.58335648  .00013749  00000-0  37701-3 0  9999
2 49086  87.4038   0.4642 0016672 237.0053  97.4720 15.37015695  3528
ONEWEB-0298             
1 49087U 21075N   21250.58335648  .00013804  00000-0  38558-3 0  9993
2 49087  87.4004   0.4630 0019205 234.0116  63.8096 15.36395315  3567
ONEWEB-0299             
1 49088U 21075P   21250.58335648  .00013285  00000-0  39078-3 0  9995
2 49088  87.4002   0.4747 0017400 242.3318 321.9253 15.34809336  3616
ONEWEB-0300             
1 49089U 21075Q   21250.58335648  .00012706  00000-0  34225-3 0  9992
2 49089  87.4019   0.4526 0017153 244.5189 122.1140 15.37556784  3610
ONEWEB-0301             
1 49090U 21075R   21250.58335648  .00009089  00000-0  23734-3 0  9997
2 49090  87.4022   0.4447 0020031 237.6639 180.0533 15.38423158  3562
ONEWEB-0302             
1 49091U 21075S   21250.58335648  .00008316  00000-0  21530-3 0  9992
2 49091  87.4009   0.4392 0019919 234.6094 198.1139 15.38676697  3618
ONEWEB-0304             
1 49092U 21075T   21250.58335648  .00013528  00000-0  39605-3 0  9996
2 49092  87.4023   0.4769 0019238 245.9651 331.1443 15.34925309  3611
ONEWEB-0305             
1 49093U 21075U   21250.58335648  .00013836  00000-0  38888-3 0  9991
2 49093  87.4037   0.4691 0019590 233.6965  53.8099 15.36192979  3564
ONEWEB-0308             
1 49094U 21075V   21250.58335648  .00011528  00000-0  30729-3 0  9994
2 49094  87.4033   0.4504 0018962 242.0948 143.2863 15.37835697  3566
ONEWEB-0309             
1 49095U 21075W   21250.58335648  .00013830  00000-0  39751-3 0  9997
2 49095  87.4019   0.4734 0019981 244.6671 359.5132 15.35487572  3541
ONEWEB-0310             
1 49096U 21075X   21250.58335648  .00013012  00000-0  35087-3 0  9998
2 49096  87.4049   0.4598 0016519 242.9515 117.7820 15.37535423  3566
ONEWEB-0311             
1 49097U 21075Y   21250.58335648  .00013834  00000-0  38230-3 0  9994
2 49097  87.4031   0.4639 0017249 234.1130  85.6101 15.36765458  3568
ONEWEB-0312             
1 49098U 21075Z   21250.58335648  .00013815  00000-0  39340-3 0  9997
2 49098  87.4039   0.4761 0020561 240.7425  20.0180 15.35766398  3602
ONEWEB-0313             
1 49099U 21075AA  21250.58335648  .00013832  00000-0  38483-3 0  9994
2 49099  87.4026   0.4647 0018688 233.4082  72.3155 15.36529794  3562
ONEWEB-0314             
1 49100U 21075AB  21250.58335648  .00013541  00000-0  39654-3 0  9995
2 49100  87.4016   0.4760 0018545 245.0789 331.8781 15.34930436  3616
ONEWEB-0315             
1 49101U 21075AC  21250.58335648  .00013387  00000-0  36374-3 0  9990
2 49101  87.4005   0.4520 0016358 242.0234 109.6325 15.37305107  3496
ONEWEB-0316             
1 49102U 21075AD  21250.58335648  .00008857  00000-0  22478-3 0  9997
2 49102  87.4052   0.4434 0017986 227.1709 244.4851 15.39334038  3569
ONEWEB-0317             
1 49103U 21075AE  21250.58335648  .00013526  00000-0  36871-3 0  9999
2 49103  87.4036   0.4595 0016033 240.9953 104.8932 15.37210412  3562
ONEWEB-0318             
1 49104U 21075AF  21250.58335648  .00009392  00000-0  23728-3 0  9993
2 49104  87.4024   0.4391 0017879 224.5358 255.5506 15.39480040  3592
ONEWEB-0319             
1 49105U 21075AG  21250.58335648  .00013831  00000-0  38859-3 0  9998
2 49105  87.4015   0.4663 0020004 235.3559  50.3031 15.36196919  3536
ONEWEB-0323             
1 49106U 21075AH  21250.58335648  .00008122  00000-0  20947-3 0  9995
2 49106  87.4037   0.4459 0019873 233.2544 206.2004 15.38790614  3612
ONEWEB-0329             
1 49107U 21075AJ  21250.58335648  .00013732  00000-0  39820-3 0  9999
2 49107  87.4015   0.4763 0019015 245.9180 343.2347 15.35230465  3545
ONEWEB-0330             
1 49108U 21075AK  21250.58335648  .00013800  00000-0  39848-3 0  9996
2 49108  87.4028   0.4735 0019500 245.3961 351.0074 15.35353648  3609
